[{"OBJECT_NAME":"STARLINK-2706","OBJECT_ID":"2021-040BF","EPOCH":"2026-03-09T16:03:18.093888","MEAN_MOTION":15.30190931,"ECCENTRICITY":0.00012725,"INCLINATION":53.1609,"RA_OF_ASC_NODE":193.6058,"ARG_OF_PERICENTER":70.4068,"MEAN_ANOMALY":289.707,"EPHEMERIS_TYPE":0,"CLASSIFICATION_TYPE":"U","NORAD_CAT_ID":48481,"ELEMENT_SET_NO":999,"REV_AT_EPOCH":26646,"BSTAR":-0.00011130998,"MEAN_MOTION_DOT":-3.653e-5,"MEAN_MOTION_DDOT":0},{"OBJECT_NAME":"TIANMU-1 19","OBJECT_ID":"2023-208A","EPOCH":"2026-03-09T22:13:36.801696","MEAN_MOTION":15.2984143,"ECCENTRICITY":0.00039292,"INCLINATION":97.4383,"RA_OF_ASC_NODE":184.9132,"ARG_OF_PERICENTER":316.2611,"MEAN_ANOMALY":43.8317,"EPHEMERIS_TYPE":0,"CLASSIFICATION_TYPE":"U","NORAD_CAT_ID":58660,"ELEMENT_SET_NO":999,"REV_AT_EPOCH":12214,"BSTAR":0.00040995676,"MEAN_MOTION_DOT":0.00011779,"MEAN_MOTION_DDOT":0}]
